{
    "links": {
        "self": "http://www.neowsapp.com/rest/v1/neo/3428343?api_key=iIulBulltgU6a56xZRHN4H3l9WmuAYTsLGpBGhQ2"
    },
    "id": "3428343",
    "neo_reference_id": "3428343",
    "name": "(2008 SX148)",
    "designation": "2008 SX148",
    "nasa_jpl_url": "http://ssd.jpl.nasa.gov/sbdb.cgi?sstr=3428343",
    "absolute_magnitude_h": 23.7,
    "estimated_diameter": {
        "kilometers": {
            "estimated_diameter_min": 0.0483676488,
            "estimated_diameter_max": 0.1081533507
        },
        "meters": {
            "estimated_diameter_min": 48.3676488219,
            "estimated_diameter_max": 108.1533506775
        },
        "miles": {
            "estimated_diameter_min": 0.0300542543,
            "estimated_diameter_max": 0.0672033557
        },
        "feet": {
            "estimated_diameter_min": 158.6865169607,
            "estimated_diameter_max": 354.8338390368
        }
    },
    "is_potentially_hazardous_asteroid": false,
    "close_approach_data": [
        {
            "close_approach_date": "2007-02-16",
            "close_approach_date_full": "2007-Feb-16 22:55",
            "epoch_date_close_approach": 1171666500000,
            "relative_velocity": {
                "kilometers_per_second": "21.7307684911",
                "kilometers_per_hour": "78230.7665680997",
                "miles_per_hour": "48609.5560378284"
            },
            "miss_distance": {
                "astronomical": "0.3710317641",
                "lunar": "144.3313562349",
                "kilometers": "55505561.611702467",
                "miles": "34489556.6835173646"
            },
            "orbiting_body": "Earth"
        },
        {
            "close_approach_date": "2008-09-04",
            "close_approach_date_full": "2008-Sep-04 03:27",
            "epoch_date_close_approach": 1220498820000,
            "relative_velocity": {
                "kilometers_per_second": "9.8017250445",
                "kilometers_per_hour": "35286.2101601055",
                "miles_per_hour": "21925.4787519833"
            },
            "miss_distance": {
                "astronomical": "0.1157337324",
                "lunar": "45.0204219036",
                "kilometers": "17313519.854189988",
                "miles": "10758122.3766303144"
            },
            "orbiting_body": "Earth"
        },
        {
            "close_approach_date": "2144-09-14",
            "close_approach_date_full": "2144-Sep-14 00:35",
            "epoch_date_close_approach": 5513099700000,
            "relative_velocity": {
                "kilometers_per_second": "17.5294869807",
                "kilometers_per_hour": "63106.1531305679",
                "miles_per_hour": "39211.7094271576"
            },
            "miss_distance": {
                "astronomical": "0.2368443294",
                "lunar": "92.1324441366",
                "kilometers": "35431407.199818378",
                "miles": "22016055.5359064964"
            },
            "orbiting_body": "Earth"
        }
    ],
    "orbital_data": {
        "orbit_id": "7",
        "orbit_determination_date": "2017-04-06 09:02:49",
        "first_observation_date": "2008-09-29",
        "last_observation_date": "2008-10-02",
        "data_arc_in_days": 3,
        "observations_used": 23,
        "orbit_uncertainty": "9",
        "minimum_orbit_intersection": ".0422636",
        "jupiter_tisserand_invariant": "5.509",
        "epoch_osculation": "2454739.5",
        "eccentricity": ".2997592835728822",
        "semi_major_axis": "1.118397636723832",
        "inclination": "14.47449214683552",
        "ascending_node_longitude": "354.7082084177663",
        "orbital_period": "432.0089934303979",
        "perihelion_distance": ".7831475623898915",
        "perihelion_argument": "252.2956852118618",
        "aphelion_distance": "1.453647711057772",
        "perihelion_time": "2454635.748312933157",
        "mean_anomaly": "86.45793933010133",
        "mean_motion": ".8333159852562202",
        "equinox": "J2000",
        "orbit_class": {
            "orbit_class_type": "APO",
            "orbit_class_description": "Near-Earth asteroid orbits which cross the Earth’s orbit similar to that of 1862 Apollo",
            "orbit_class_range": "a (semi-major axis) > 1.0 AU; q (perihelion) < 1.017 AU"
        }
    },
    "is_sentry_object": false
}